OBJECT_NAME,OBJECT_ID,EPOCH,MEAN_MOTION,ECCENTRICITY,INCLINATION,RA_OF_ASC_NODE,ARG_OF_PERICENTER,MEAN_ANOMALY,EPHEMERIS_TYPE,CLASSIFICATION_TYPE,NORAD_CAT_ID,ELEMENT_SET_NO,REV_AT_EPOCH,BSTAR,MEAN_MOTION_DOT,MEAN_MOTION_DDOT
ANGOSAT 2,2022-131A,2026-07-01T03:52:24.579840,1.00272414,.0000393,0.0218,95.4205,356.7403,268.1513,0,U,54033,999,1361,0,.146E-5,0
EUTELSAT HOTBIRD 13F,2022-134A,2026-06-30T00:27:03.290976,1.00271674,.00017924,0.0536,290.3962,79.1998,288.2887,0,U,54048,999,1350,0,.98E-6,0
LDPE-2,2022-144A,2026-06-30T14:45:08.822880,1.00539349,.00022234,5.6437,63.5429,94.8348,196.8699,0,U,54219,999,1197,0,.104E-5,0
EUTELSAT HOTBIRD 13G,2022-146A,2026-06-29T17:39:21.542400,1.00262523,.00019588,0.0645,217.9646,297.8038,39.8734,0,U,54225,999,759,0,.97E-6,0
ZHONGXING-19,2022-148A,2026-06-30T12:55:12.950976,1.00272797,.00029256,0.0397,81.2762,35.8417,158.5090,0,U,54230,999,1351,0,-.7E-6,0
GALAXY 31 (G-31),2022-153A,2026-07-01T01:28:42.956256,1.00271917,.0001603,0.0160,57.1188,39.5934,83.5776,0,U,54243,999,727,0,.24E-6,0
GALAXY 32 (G-32),2022-153B,2026-06-30T23:55:11.050752,1.00272750,.000206,0.0073,17.7858,32.4715,136.5967,0,U,54244,999,1328,0,-.164E-5,0
EUTELSAT 10B,2022-157A,2026-06-30T21:55:38.648064,1.00270397,.000234,0.0623,95.8880,13.6840,148.2934,0,U,54259,999,1316,0,.78E-6,0
GALAXY 35 (G-35),2022-170A,2026-07-01T03:19:13.440864,1.00270742,.0002373,0.0245,52.6840,56.0281,127.1799,0,U,54741,999,1303,0,0,0
GALAXY 36 (G-36),2022-170B,2026-07-01T04:11:10.707072,1.00270762,.0002869,0.0081,311.9254,141.1932,159.9019,0,U,54742,999,1291,0,-.175E-5,0
METEOSAT-12 (MTG-I1),2022-170C,2026-07-01T03:45:40.226112,1.00276135,.0003664,0.7533,25.1015,73.6731,236.5905,0,U,54743,999,1311,0,.4E-7,0
SHIJIAN-23 (SJ-23),2023-002A,2026-06-30T16:42:21.991104,1.00084361,.0003583,3.7505,78.1509,279.4693,310.8229,0,U,55131,999,1264,0,-.303E-5,0
APSTAR-6E,2023-005A,2026-06-30T16:25:27.464160,1.00276647,.00011293,0.0502,228.0167,292.6493,138.4482,0,U,55239,999,1882,0,-.306E-5,0
USA 342,2023-008A,2026-06-27T17:55:22.293120,1.00269221,.0000542,0.0068,21.1845,140.6398,46.7067,0,U,55263,999,1262,0,0,0
LDPE-3A,2023-008B,2026-06-30T18:25:44.022432,0.99150317,.0001568,2.3815,81.5078,55.2796,254.4668,0,U,55264,999,1194,0,-.31E-6,0
ELEKTRO-L 4,2023-016A,2026-06-30T18:21:34.236576,1.00271669,.000103,0.0898,142.6642,39.5441,177.7862,0,U,55506,999,1247,0,-.48E-6,0
AMAZONAS NEXUS,2023-017A,2026-06-29T17:15:21.421152,1.00269774,.00051317,0.0360,39.1050,37.6615,38.8677,0,U,55508,999,717,0,-.271E-5,0
ZHONGXING-26,2023-023A,2026-06-29T16:25:46.524000,1.00272817,.00034584,0.0638,69.5474,28.5668,191.2311,0,U,55686,999,1235,0,-.342E-5,0
LUCH-5X (OLYMP-K 2),2023-031A,2026-06-30T16:04:56.296992,1.00270316,.0001146,0.0302,85.5386,146.8989,349.4864,0,U,55841,999,1207,0,.44E-6,0
GAOFEN-13 02,2023-036A,2026-07-01T03:46:38.647200,1.00268280,.000356,1.0228,2.8227,337.8325,143.4123,0,U,55912,999,1223,0,-.209E-5,0
SES-18,2023-038A,2026-06-29T13:37:57.165600,1.00271951,.00007999,0.0453,271.8954,237.1209,230.0202,0,U,55970,999,1222,0,-.9E-6,0
SES-19,2023-038B,2026-07-01T04:12:38.796192,1.00274112,.0002002,0.0110,17.9778,85.4829,104.0419,0,U,55971,999,1223,0,.98E-6,0
INTELSAT 40E (IS-40E),2023-052A,2026-06-30T23:55:11.050752,1.00268679,.0002577,0.0227,49.5600,82.2406,55.0560,0,U,56174,999,1196,0,0,0
VIASAT-3 F1,2023-060A,2026-06-29T15:24:39.657888,1.00270271,.00009507,0.0215,4.6677,105.1301,310.1042,0,U,56370,999,1155,0,0,0
ARCTURUS,2023-060B,2026-07-01T00:44:05.117856,1.00598759,.0000461,2.8095,79.7674,169.5879,123.1723,0,U,56371,999,1159,0,-.219E-5,0
GS-1,2023-060C,2026-06-29T17:23:09.284064,1.00271102,.00036448,2.7571,79.6877,279.8001,268.5552,0,U,56372,999,766,0,-.215E-5,0
BEIDOU-3 G4,2023-066A,2026-07-01T02:49:38.582688,1.00269484,.0004991,0.4723,334.9543,176.0685,310.5975,0,U,56564,999,1153,0,-.27E-5,0
ARABSAT-7B (BADR-8),2023-075A,2026-07-01T00:27:51.674112,1.00272104,.0004015,0.0736,29.4300,3.9633,278.6455,0,U,56757,999,1125,0,.155E-5,0
NVS-01 (IRNSS-1J),2023-076A,2026-07-01T00:57:26.337888,1.00272763,.0002854,2.1349,243.7241,9.7131,169.5949,0,U,56759,999,1125,0,-.324E-5,0
NUSANTARA TIGA (SATRIA),2023-086A,2026-07-01T04:27:29.065248,1.00268980,.0002512,0.0364,2.8262,340.4828,148.8019,0,U,57045,999,990,0,-.225E-5,0
H2SAT (HEINRICH HERTZ),2023-093A,2026-06-30T00:23:33.625824,1.00271793,.00013481,0.0299,97.6220,30.7649,156.3068,0,U,57213,999,1104,0,.13E-6,0
SYRACUSE 4B,2023-093B,2026-07-01T03:43:55.394400,1.00269618,.0000271,0.0239,36.7631,121.7486,170.2275,0,U,57214,999,710,0,0,0
